STARLINK-33757          
1 63720U 25087Z   25255.47350701  .00018251  00000+0  62648-3 0  9991
2 63720  53.1610 327.3716 0003385  95.6657 264.4730 15.30214805 21910
STARLINK-33774          
1 63721U 25087AA  25255.48828212  .00042600  00000+0  14408-2 0  9995
2 63721  53.1568 327.4652 0001478 100.9233 259.1934 15.30232144 21917
STARLINK-33767          
1 63722U 25087AB  25254.48112448  .00021421  00000+0  73313-3 0  9991
2 63722  53.1608 331.8443 0001145  67.5439 292.5683 15.30206702 21763
STARLINK-33806          
1 63723U 25087AC  25255.46717623  .00014434  00000+0  49833-3 0  9993
2 63723  53.1610 327.3321 0000372  36.5391 323.5635 15.30211527 21916
STARLINK-11677 [DTC]    
1 63751U 25089A   25255.22242353  .00161172  00000+0  12356-2 0  9994
2 63751  42.9989 288.3090 0002971 293.1535  66.9020 15.70832513 22060
STARLINK-11702 [DTC]    
1 63752U 25089B   25254.11496260  .00185997  00000+0  14157-2 0  9992
2 63752  42.9992 294.6110 0000919 238.6465 121.4313 15.70925161 21898
STARLINK-11706 [DTC]    
1 63753U 25089C   25255.56145033  .00142572  00000+0  10943-2 0  9993
2 63753  42.9990 285.6675 0000972 270.2619  89.8137 15.70869464 22126
STARLINK-11662 [DTC]    
1 63754U 25089D   25255.46082621  .00091416  00000+0  70727-3 0  9993
2 63754  43.0027 286.6468 0002248 275.8659  84.1952 15.70867191 22155
STARLINK-11681 [DTC]    
1 63755U 25089E   25255.47144667  .00253213  00000+0  18996-2 0  9998
2 63755  42.9986 286.7302 0002682 260.6735  99.3829 15.71060443 22107
STARLINK-11688 [DTC]    
1 63756U 25089F   25255.45551930  .00154850  00000+0  11878-2 0  9991
2 63756  43.0008 286.6042 0001942 271.4887  88.5759 15.70842312 21991
STARLINK-11676 [DTC]    
1 63757U 25089G   25255.55082846  .00175705  00000+0  13427-2 0  9992
2 63757  43.0016 285.5799 0002223 268.9043  91.1570 15.70863422 22016
STARLINK-11705 [DTC]    
1 63758U 25089H   25255.46614278  .00170695  00000+0  13055-2 0  9993
2 63758  42.9968 286.6889 0000697 338.4722  21.6116 15.70859899 22054
STARLINK-11703 [DTC]    
1 63759U 25089J   25255.50848410  .00131589  00000+0  10119-2 0  9993
2 63759  43.0013 286.1330 0001625 273.3034  86.7648 15.70862674 22113
STARLINK-11701 [DTC]    
1 63760U 25089K   25255.49255499  .00101312  00000+0  78314-3 0  9995
2 63760  42.9977 286.0054 0001513 264.6172  95.4523 15.70849399 22114
STARLINK-11660 [DTC]    
1 63761U 25089L   25255.43958432  .00167957  00000+0  12785-2 0  9993
2 63761  42.9987 286.4725 0004075 274.1341  85.9061 15.70975642 22050
STARLINK-11699 [DTC]    
1 63762U 25089M   25255.48206818  .00339192  00000+0  25335-2 0  9990
2 63762  42.9986 286.8150 0001338 278.3110  81.7606 15.70905804 22103
