[{"OBJECT_NAME":"STARLINK-33757","OBJECT_ID":"2025-087Z","EPOCH":"2025-09-12T11:21:51.005664","MEAN_MOTION":15.30214805,"ECCENTRICITY":0.00033857,"INCLINATION":53.161,"RA_OF_ASC_NODE":327.3716,"ARG_OF_PERICENTER":95.6657,"MEAN_ANOMALY":264.473,"EPHEMERIS_TYPE":0,"CLASSIFICATION_TYPE":"U","NORAD_CAT_ID":63720,"ELEMENT_SET_NO":999,"REV_AT_EPOCH":2191,"BSTAR":0.00062648481,"MEAN_MOTION_DOT":0.00018251,"MEAN_MOTION_DDOT":0},{"OBJECT_NAME":"STARLINK-33774","OBJECT_ID":"2025-087AA","EPOCH":"2025-09-12T11:43:07.575168","MEAN_MOTION":15.30232144,"ECCENTRICITY":0.00014785,"INCLINATION":53.1568,"RA_OF_ASC_NODE":327.4652,"ARG_OF_PERICENTER":100.9233,"MEAN_ANOMALY":259.1934,"EPHEMERIS_TYPE":0,"CLASSIFICATION_TYPE":"U","NORAD_CAT_ID":63721,"ELEMENT_SET_NO":999,"REV_AT_EPOCH":2191,"BSTAR":0.0014407654,"MEAN_MOTION_DOT":0.000426,"MEAN_MOTION_DDOT":0},{"OBJECT_NAME":"STARLINK-33767","OBJECT_ID":"2025-087AB","EPOCH":"2025-09-11T11:32:49.155072","MEAN_MOTION":15.30206702,"ECCENTRICITY":0.00011455,"INCLINATION":53.1608,"RA_OF_ASC_NODE":331.8443,"ARG_OF_PERICENTER":67.5439,"MEAN_ANOMALY":292.5683,"EPHEMERIS_TYPE":0,"CLASSIFICATION_TYPE":"U","NORAD_CAT_ID":63722,"ELEMENT_SET_NO":999,"REV_AT_EPOCH":2176,"BSTAR":0.000733128,"MEAN_MOTION_DOT":0.00021421,"MEAN_MOTION_DDOT":0},{"OBJECT_NAME":"STARLINK-33806","OBJECT_ID":"2025-087AC","EPOCH":"2025-09-12T11:12:44.026272","MEAN_MOTION":15.30211527,"ECCENTRICITY":3.722e-5,"INCLINATION":53.161,"RA_OF_ASC_NODE":327.3321,"ARG_OF_PERICENTER":36.5391,"MEAN_ANOMALY":323.5635,"EPHEMERIS_TYPE":0,"CLASSIFICATION_TYPE":"U","NORAD_CAT_ID":63723,"ELEMENT_SET_NO":999,"REV_AT_EPOCH":2191,"BSTAR":0.00049832936,"MEAN_MOTION_DOT":0.00014434,"MEAN_MOTION_DDOT":0},{"OBJECT_NAME":"STARLINK-11677 [DTC]","OBJECT_ID":"2025-089A","EPOCH":"2025-09-12T05:20:17.392992","MEAN_MOTION":15.70832513,"ECCENTRICITY":0.00029718,"INCLINATION":42.9989,"RA_OF_ASC_NODE":288.309,"ARG_OF_PERICENTER":293.1535,"MEAN_ANOMALY":66.902,"EPHEMERIS_TYPE":0,"CLASSIFICATION_TYPE":"U","NORAD_CAT_ID":63751,"ELEMENT_SET_NO":999,"REV_AT_EPOCH":2206,"BSTAR":0.0012355924,"MEAN_MOTION_DOT":0.00161172,"MEAN_MOTION_DDOT":0},{"OBJECT_NAME":"STARLINK-11702 [DTC]","OBJECT_ID":"2025-089B","EPOCH":"2025-09-11T02:45:32.768640","MEAN_MOTION":15.70925161,"ECCENTRICITY":9.19e-5,"INCLINATION":42.9992,"RA_OF_ASC_NODE":294.611,"ARG_OF_PERICENTER":238.6465,"MEAN_ANOMALY":121.4313,"EPHEMERIS_TYPE":0,"CLASSIFICATION_TYPE":"U","NORAD_CAT_ID":63752,"ELEMENT_SET_NO":999,"REV_AT_EPOCH":2189,"BSTAR":0.0014157442,"MEAN_MOTION_DOT":0.00185997,"MEAN_MOTION_DDOT":0},{"OBJECT_NAME":"STARLINK-11706 [DTC]","OBJECT_ID":"2025-089C","EPOCH":"2025-09-12T13:28:29.308512","MEAN_MOTION":15.70869464,"ECCENTRICITY":9.725e-5,"INCLINATION":42.999,"RA_OF_ASC_NODE":285.6675,"ARG_OF_PERICENTER":270.2619,"MEAN_ANOMALY":89.8137,"EPHEMERIS_TYPE":0,"CLASSIFICATION_TYPE":"U","NORAD_CAT_ID":63753,"ELEMENT_SET_NO":999,"REV_AT_EPOCH":2212,"BSTAR":0.0010942908,"MEAN_MOTION_DOT":0.00142572,"MEAN_MOTION_DDOT":0},{"OBJECT_NAME":"STARLINK-11662 [DTC]","OBJECT_ID":"2025-089D","EPOCH":"2025-09-12T11:03:35.384544","MEAN_MOTION":15.70867191,"ECCENTRICITY":0.00022484,"INCLINATION":43.0027,"RA_OF_ASC_NODE":286.6468,"ARG_OF_PERICENTER":275.8659,"MEAN_ANOMALY":84.1952,"EPHEMERIS_TYPE":0,"CLASSIFICATION_TYPE":"U","NORAD_CAT_ID":63754,"ELEMENT_SET_NO":999,"REV_AT_EPOCH":2215,"BSTAR":0.0007072658,"MEAN_MOTION_DOT":0.00091416,"MEAN_MOTION_DDOT":0},{"OBJECT_NAME":"STARLINK-11681 [DTC]","OBJECT_ID":"2025-089E","EPOCH":"2025-09-12T11:18:52.992288","MEAN_MOTION":15.71060443,"ECCENTRICITY":0.00026821,"INCLINATION":42.9986,"RA_OF_ASC_NODE":286.7302,"ARG_OF_PERICENTER":260.6735,"MEAN_ANOMALY":99.3829,"EPHEMERIS_TYPE":0,"CLASSIFICATION_TYPE":"U","NORAD_CAT_ID":63755,"ELEMENT_SET_NO":999,"REV_AT_EPOCH":2210,"BSTAR":0.0018995952,"MEAN_MOTION_DOT":0.00253213,"MEAN_MOTION_DDOT":0},{"OBJECT_NAME":"STARLINK-11688 [DTC]","OBJECT_ID":"2025-089F","EPOCH":"2025-09-12T10:55:56.867520","MEAN_MOTION":15.70842312,"ECCENTRICITY":0.0001942,"INCLINATION":43.0008,"RA_OF_ASC_NODE":286.6042,"ARG_OF_PERICENTER":271.4887,"MEAN_ANOMALY":88.5759,"EPHEMERIS_TYPE":0,"CLASSIFICATION_TYPE":"U","NORAD_CAT_ID":63756,"ELEMENT_SET_NO":999,"REV_AT_EPOCH":2199,"BSTAR":0.0011877887,"MEAN_MOTION_DOT":0.0015485,"MEAN_MOTION_DDOT":0},{"OBJECT_NAME":"STARLINK-11676 [DTC]","OBJECT_ID":"2025-089G","EPOCH":"2025-09-12T13:13:11.578944","MEAN_MOTION":15.70863422,"ECCENTRICITY":0.00022237,"INCLINATION":43.0016,"RA_OF_ASC_NODE":285.5799,"ARG_OF_PERICENTER":268.9043,"MEAN_ANOMALY":91.157,"EPHEMERIS_TYPE":0,"CLASSIFICATION_TYPE":"U","NORAD_CAT_ID":63757,"ELEMENT_SET_NO":999,"REV_AT_EPOCH":2201,"BSTAR":0.0013426943,"MEAN_MOTION_DOT":0.00175705,"MEAN_MOTION_DDOT":0},{"OBJECT_NAME":"STARLINK-11705 [DTC]","OBJECT_ID":"2025-089H","EPOCH":"2025-09-12T11:11:14.736192","MEAN_MOTION":15.70859899,"ECCENTRICITY":6.971e-5,"INCLINATION":42.9968,"RA_OF_ASC_NODE":286.6889,"ARG_OF_PERICENTER":338.4722,"MEAN_ANOMALY":21.6116,"EPHEMERIS_TYPE":0,"CLASSIFICATION_TYPE":"U","NORAD_CAT_ID":63758,"ELEMENT_SET_NO":999,"REV_AT_EPOCH":2205,"BSTAR":0.0013055264,"MEAN_MOTION_DOT":0.00170695,"MEAN_MOTION_DDOT":0},{"OBJECT_NAME":"STARLINK-11703 [DTC]","OBJECT_ID":"2025-089J","EPOCH":"2025-09-12T12:12:13.026240","MEAN_MOTION":15.70862674,"ECCENTRICITY":0.00016257,"INCLINATION":43.0013,"RA_OF_ASC_NODE":286.133,"ARG_OF_PERICENTER":273.3034,"MEAN_ANOMALY":86.7648,"EPHEMERIS_TYPE":0,"CLASSIFICATION_TYPE":"U","NORAD_CAT_ID":63759,"ELEMENT_SET_NO":999,"REV_AT_EPOCH":2211,"BSTAR":0.0010118753,"MEAN_MOTION_DOT":0.00131589,"MEAN_MOTION_DDOT":0},{"OBJECT_NAME":"STARLINK-11701 [DTC]","OBJECT_ID":"2025-089K","EPOCH":"2025-09-12T11:49:16.751136","MEAN_MOTION":15.70849399,"ECCENTRICITY":0.00015138,"INCLINATION":42.9977,"RA_OF_ASC_NODE":286.0054,"ARG_OF_PERICENTER":264.6172,"MEAN_ANOMALY":95.4523,"EPHEMERIS_TYPE":0,"CLASSIFICATION_TYPE":"U","NORAD_CAT_ID":63760,"ELEMENT_SET_NO":999,"REV_AT_EPOCH":2211,"BSTAR":0.00078313814,"MEAN_MOTION_DOT":0.00101312,"MEAN_MOTION_DDOT":0},{"OBJECT_NAME":"STARLINK-11660 [DTC]","OBJECT_ID":"2025-089L","EPOCH":"2025-09-12T10:33:00.085248","MEAN_MOTION":15.70975642,"ECCENTRICITY":0.00040753,"INCLINATION":42.9987,"RA_OF_ASC_NODE":286.4725,"ARG_OF_PERICENTER":274.1341,"MEAN_ANOMALY":85.9061,"EPHEMERIS_TYPE":0,"CLASSIFICATION_TYPE":"U","NORAD_CAT_ID":63761,"ELEMENT_SET_NO":999,"REV_AT_EPOCH":2205,"BSTAR":0.0012784986,"MEAN_MOTION_DOT":0.00167957,"MEAN_MOTION_DDOT":0},{"OBJECT_NAME":"STARLINK-11699 [DTC]","OBJECT_ID":"2025-089M","EPOCH":"2025-09-12T11:34:10.690752","MEAN_MOTION":15.70905804,"ECCENTRICITY":0.00013387,"INCLINATION":42.9986,"RA_OF_ASC_NODE":286.815,"ARG_OF_PERICENTER":278.311,"MEAN_ANOMALY":81.7606,"EPHEMERIS_TYPE":0,"CLASSIFICATION_TYPE":"U","NORAD_CAT_ID":63762,"ELEMENT_SET_NO":999,"REV_AT_EPOCH":2210,"BSTAR":0.0025334684,"MEAN_MOTION_DOT":0.00339192,"MEAN_MOTION_DDOT":0}]
